[{"OBJECT_NAME":"ION SCV-011","OBJECT_ID":"2023-084AB","EPOCH":"2026-03-09T22:35:16.566144","MEAN_MOTION":15.27752464,"ECCENTRICITY":0.00079323,"INCLINATION":98.1356,"RA_OF_ASC_NODE":247.1056,"ARG_OF_PERICENTER":30.3898,"MEAN_ANOMALY":329.7798,"EPHEMERIS_TYPE":0,"CLASSIFICATION_TYPE":"U","NORAD_CAT_ID":56957,"ELEMENT_SET_NO":999,"REV_AT_EPOCH":15065,"BSTAR":0.0002590454,"MEAN_MOTION_DOT":6.943e-5,"MEAN_MOTION_DDOT":0},{"OBJECT_NAME":"STARLINK-35746","OBJECT_ID":"2025-268AB","EPOCH":"2026-03-09T04:06:48.489120","MEAN_MOTION":15.27577048,"ECCENTRICITY":0.00015387,"INCLINATION":43.0025,"RA_OF_ASC_NODE":349.7148,"ARG_OF_PERICENTER":252.3791,"MEAN_ANOMALY":107.6892,"EPHEMERIS_TYPE":0,"CLASSIFICATION_TYPE":"U","NORAD_CAT_ID":66582,"ELEMENT_SET_NO":999,"REV_AT_EPOCH":1788,"BSTAR":0.0010504088,"MEAN_MOTION_DOT":0.00028753,"MEAN_MOTION_DDOT":0}]
